{
  "norad_id": 64234,
  "name": "STARLINK-11682 [DTC]",
  "history": [
    {
      "epoch": "2026-03-28T17:31:56.635968",
      "apogee_km": 357.5719933207429,
      "perigee_km": 355.0452293273738,
      "latitude_deg": 42.16869430031797,
      "longitude_deg": -46.470404480118304,
      "semi_major_axis_km": 6734.445611324058,
      "eccentricity": 0.0001876,
      "inclination_deg": 42.9952,
      "raan_deg": 94.8579,
      "arg_perigee_deg": 72.6488,
      "mean_anomaly_deg": 287.4585,
      "mean_motion_rev_day": 15.70905236
    }
  ]
}